{
    "links": {
        "self": "http://www.neowsapp.com/rest/v1/neo/3836194?api_key=iIulBulltgU6a56xZRHN4H3l9WmuAYTsLGpBGhQ2"
    },
    "id": "3836194",
    "neo_reference_id": "3836194",
    "name": "(2018 VQ7)",
    "designation": "2018 VQ7",
    "nasa_jpl_url": "http://ssd.jpl.nasa.gov/sbdb.cgi?sstr=3836194",
    "absolute_magnitude_h": 24.4,
    "estimated_diameter": {
        "kilometers": {
            "estimated_diameter_min": 0.0350392641,
            "estimated_diameter_max": 0.0783501764
        },
        "meters": {
            "estimated_diameter_min": 35.0392641108,
            "estimated_diameter_max": 78.3501764334
        },
        "miles": {
            "estimated_diameter_min": 0.0217723826,
            "estimated_diameter_max": 0.0486845275
        },
        "feet": {
            "estimated_diameter_min": 114.9582192654,
            "estimated_diameter_max": 257.0543928497
        }
    },
    "is_potentially_hazardous_asteroid": false,
    "close_approach_data": [
        {
            "close_approach_date": "2016-11-03",
            "close_approach_date_full": "2016-Nov-03 21:41",
            "epoch_date_close_approach": 1478209260000,
            "relative_velocity": {
                "kilometers_per_second": "14.7778421861",
                "kilometers_per_hour": "53200.231870063",
                "miles_per_hour": "33056.5551861511"
            },
            "miss_distance": {
                "astronomical": "0.2275604952",
                "lunar": "88.5210326328",
                "kilometers": "34042565.378065224",
                "miles": "21153069.2450751312"
            },
            "orbiting_body": "Earth"
        },
        {
            "close_approach_date": "2018-11-01",
            "close_approach_date_full": "2018-Nov-01 14:14",
            "epoch_date_close_approach": 1541081640000,
            "relative_velocity": {
                "kilometers_per_second": "12.021006862",
                "kilometers_per_hour": "43275.6247033429",
                "miles_per_hour": "26889.7902496966"
            },
            "miss_distance": {
                "astronomical": "0.1636076008",
                "lunar": "63.6433567112",
                "kilometers": "24475348.595490296",
                "miles": "15208276.4000902448"
            },
            "orbiting_body": "Earth"
        }
    ],
    "orbital_data": {
        "orbit_id": "1",
        "orbit_determination_date": "2018-11-12 09:42:07",
        "first_observation_date": "2018-11-10",
        "last_observation_date": "2018-11-12",
        "data_arc_in_days": 2,
        "observations_used": 21,
        "orbit_uncertainty": "8",
        "minimum_orbit_intersection": ".158544",
        "jupiter_tisserand_invariant": "4.285",
        "epoch_osculation": "2458433.5",
        "eccentricity": ".3196874805403466",
        "semi_major_axis": "1.570217456169517",
        "inclination": "21.15042244903615",
        "ascending_node_longitude": "49.87091747003142",
        "orbital_period": "718.684251939965",
        "perihelion_distance": "1.068238593706212",
        "perihelion_argument": "308.780942769221",
        "aphelion_distance": "2.072196318632822",
        "perihelion_time": "2458381.650933094996",
        "mean_anomaly": "25.9719954005068",
        "mean_motion": ".500915386733801",
        "equinox": "J2000",
        "orbit_class": {
            "orbit_class_type": "AMO",
            "orbit_class_description": "Near-Earth asteroid orbits similar to that of 1221 Amor",
            "orbit_class_range": "1.017 AU < q (perihelion) < 1.3 AU"
        }
    },
    "is_sentry_object": false
}